ONEWEB-0176             
1 48210U 21031A   25085.75864371 -.00000325  00000+0 -91050-3 0  9992
2 48210  87.9087  18.6716 0001927  78.2897 281.8449 13.14500152189539
ONEWEB-0184             
1 48211U 21031B   25085.35110614  .00000155  00000+0  38308-3 0  9999
2 48211  87.9083  18.7259 0002213  54.8848 305.2489 13.14502407189455
ONEWEB-0179             
1 48212U 21031C   25086.08297308 -.00000030  00000+0 -11633-3 0  9993
2 48212  87.9087  18.5946 0001791  79.2899 280.8433 13.14505042189598
ONEWEB-0180             
1 48213U 21031D   25085.35428354  .00000136  00000+0  33260-3 0  9995
2 48213  87.9084  18.7292 0001755  71.6536 288.4785 13.14503586189388
ONEWEB-0218             
1 48214U 21031E   25085.30036268 -.00000177  00000+0 -51139-3 0  9992
2 48214  87.9086  18.7404 0001947  47.3759 312.7535 13.14503388189537
ONEWEB-0209             
1 48215U 21031F   25085.74595612 -.00000135  00000+0 -39818-3 0  9998
2 48215  87.9089  18.6935 0001738  79.6536 280.4790 13.14499731189594
ONEWEB-0198             
1 48216U 21031G   25085.50175268  .00000212  00000+0  53670-3 0  9990
2 48216  87.9087  18.7442 0001685  67.2026 292.9281 13.14502037189671
ONEWEB-0189             
1 48217U 21031H   25085.51442836  .00000027  00000+0  39416-4 0  9997
2 48217  87.9086  18.7158 0001597  66.4712 293.6585 13.14501209189417
